[{"OBJECT_NAME":"NISAR","OBJECT_ID":"2025-163A","EPOCH":"2026-03-09T23:23:00.539520","MEAN_MOTION":14.42502005,"ECCENTRICITY":0.00012255,"INCLINATION":98.4063,"RA_OF_ASC_NODE":258.0769,"ARG_OF_PERICENTER":90.8877,"MEAN_ANOMALY":269.2453,"EPHEMERIS_TYPE":0,"CLASSIFICATION_TYPE":"U","NORAD_CAT_ID":65053,"ELEMENT_SET_NO":999,"REV_AT_EPOCH":3208,"BSTAR":7.226955e-6,"MEAN_MOTION_DOT":-2.0e-7,"MEAN_MOTION_DDOT":0},{"OBJECT_NAME":"COSMOS 249 DEB","OBJECT_ID":"1968-091BB","EPOCH":"2026-03-05T19:33:50.235264","MEAN_MOTION":13.30346974,"ECCENTRICITY":0.05679379,"INCLINATION":62.2702,"RA_OF_ASC_NODE":210.8286,"ARG_OF_PERICENTER":225.5565,"MEAN_ANOMALY":129.7639,"EPHEMERIS_TYPE":0,"CLASSIFICATION_TYPE":"U","NORAD_CAT_ID":3794,"ELEMENT_SET_NO":999,"REV_AT_EPOCH":69632,"BSTAR":0.0051064162,"MEAN_MOTION_DOT":5.813e-5,"MEAN_MOTION_DDOT":0}]
